ONEWEB-0675             
1 55834U 23029AQ  26183.82549461 -.00001134  00000+0 -28652-2 0  9995
2 55834  87.9182 301.8621 0002297 101.0507 259.0884 13.19730709160987
ONEWEB-0720             
1 55835U 23029AR  26183.81760705  .00000030  00000+0  42287-4 0  9995
2 55835  87.9183 301.8639 0001915 109.6856 250.4484 13.19725574160902
ONEWEB-0537             
1 56046U 23043A   26183.54598310 -.00000109  00000+0 -31770-3 0  9990
2 56046  87.9084 225.7213 0002265  92.8759 267.2631 13.16593729160983
ONEWEB-0538             
1 56047U 23043B   26183.84363521 -.00000001  00000+0 -37219-4 0  9994
2 56047  87.9087 225.6647 0002266  99.7209 260.4178 13.16592895161035
ONEWEB-0546             
1 56048U 23043C   26183.83096812 -.00000019  00000+0 -82309-4 0  9999
2 56048  87.9085 225.6670 0002538  83.7451 276.3969 13.16593708161021
ONEWEB-0547             
1 56049U 23043D   26183.16031691  .00000094  00000+0  19699-3 0  9992
2 56049  87.9250 240.9953 0002104 103.0496 257.0873 13.21827019160204
ONEWEB-0548             
1 56050U 23043E   26183.55151865  .00000041  00000+0  73067-4 0  9995
2 56050  87.9081 225.7186 0001706  86.4984 273.6342 13.16594124160982
ONEWEB-0549             
1 56051U 23043F   26183.60861234  .00000067  00000+0  12966-3 0  9998
2 56051  87.9243 240.9118 0002329 103.8313 256.3080 13.21827100160266
ONEWEB-0550             
1 56052U 23043G   26183.59516522  .00000066  00000+0  12758-3 0  9992
2 56052  87.9249 240.9124 0001812  96.2100 263.9241 13.21826981160264
ONEWEB-0551             
1 56053U 23043H   26183.44274957  .00000062  00000+0  13163-3 0  9997
2 56053  87.8998 256.1871 0002226 107.6160 252.5213 13.15546804158408
ONEWEB-0552             
1 56054U 23043J   26183.59009683  .00000072  00000+0  14219-3 0  9990
2 56054  87.9242 240.9184 0001983 103.2955 256.8400 13.21825629160267
ONEWEB-0553             
1 56055U 23043K   26183.83730094 -.00000084  00000+0 -25430-3 0  9997
2 56055  87.9085 225.6666 0002232  86.7169 273.4217 13.16593348161039
ONEWEB-0554             
1 56056U 23043L   26183.82464019  .00000029  00000+0  43551-4 0  9990
2 56056  87.9084 225.6773 0001665  85.1589 274.9732 13.16593223161014
ONEWEB-0555             
1 56057U 23043M   26183.55864117  .00000126  00000+0  29644-3 0  9998
2 56057  87.9088 225.7192 0002439  84.5820 275.5589 13.16593341160989
ONEWEB-0557             
1 56058U 23043N   26183.57289168  .00000066  00000+0  13775-3 0  9999
2 56058  87.9090 225.7260 0001977  58.5696 301.5628 13.16594034160981
ONEWEB-0558             
1 56059U 23043P   26183.58337178  .00000038  00000+0  61062-4 0  9998
2 56059  87.9243 240.9152 0002356 101.8808 258.2590 13.21825401160279
ONEWEB-0559             
1 56060U 23043Q   26183.57158882  .00000047  00000+0  82775-4 0  9996
2 56060  87.9246 240.9128 0002115 103.6264 256.5105 13.21826234160285
ONEWEB-0566             
1 56061U 23043R   26183.48916470  .00000080  00000+0  16233-3 0  9994
2 56061  87.9241 240.9264 0002186 106.0246 254.1128 13.21827694160254
ONEWEB-0568             
1 56062U 23043S   26183.81831634  .00000046  00000+0  87520-4 0  9990
2 56062  87.9084 225.6666 0002247  89.5817 270.5571 13.16595167161035
ONEWEB-0574             
1 56063U 23043T   26183.55815514  .00000013  00000+0 -92603-6 0  9996
2 56063  87.9249 240.9176 0001961  92.6593 267.4766 13.21825196160307
ONEWEB-0575             
1 56064U 23043U   26183.81197538  .00000065  00000+0  13577-3 0  9991
2 56064  87.9087 225.6644 0001951  82.9762 277.1591 13.16595195161028
ONEWEB-0576             
1 56065U 23043V   26183.56497885  .00000108  00000+0  24797-3 0  9996
2 56065  87.9088 225.7215 0001977  89.7614 270.3743 13.16595394160983
ONEWEB-0577             
1 56066U 23043W   26183.57132251  .00000167  00000+0  40249-3 0  9996
2 56066  87.9087 225.7180 0001641  73.4001 286.7310 13.16595546161017
ONEWEB-0578             
1 56067U 23043X   26183.62039628 -.00000050  00000+0 -15241-3 0  9994
2 56067  87.9248 240.9020 0002264  90.7079 269.4315 13.21825358160271
ONEWEB-0579             
1 56068U 23043Y   26183.61197466 -.00000040  00000+0 -12940-3 0  9991
2 56068  87.9245 240.9014 0001881 104.0658 256.0686 13.21827190160288
ONEWEB-0581             
1 56069U 23043Z   26183.80564204  .00000074  00000+0  15957-3 0  9997
2 56069  87.9089 225.6827 0001678  82.2539 277.8782 13.16594633161013
ONEWEB-0609             
1 56070U 23043AA  26183.62100497 -.00000271  00000+0 -75431-3 0  9993
2 56070  87.8994 256.1367 0002116 100.0368 260.1001 13.15548110158466
ONEWEB-0613             
1 56071U 23043AB  26183.61863657 -.00000134  00000+0 -39029-3 0  9998
2 56071  87.8996 256.1497 0002037 107.1965 252.9388 13.15547365158464
ONEWEB-0630             
1 56072U 23043AC  26183.46177789 -.00000062  00000+0 -19970-3 0  9999
2 56072  87.9000 256.1534 0001953 106.2301 253.9044 13.15548136158438
ONEWEB-0632             
1 56073U 23043AD  26183.45702015 -.00000105  00000+0 -31222-3 0  9997
2 56073  87.8998 256.1714 0001888  96.9730 263.1615 13.15548090158438
