OBJECT_NAME,OBJECT_ID,EPOCH,MEAN_MOTION,ECCENTRICITY,INCLINATION,RA_OF_ASC_NODE,ARG_OF_PERICENTER,MEAN_ANOMALY,EPHEMERIS_TYPE,CLASSIFICATION_TYPE,NORAD_CAT_ID,ELEMENT_SET_NO,REV_AT_EPOCH,BSTAR,MEAN_MOTION_DOT,MEAN_MOTION_DDOT
ONEWEB-0675,2023-029AQ,2026-07-02T19:48:42.734304,13.19730709,.0002297,87.9182,301.8621,101.0507,259.0884,0,U,55834,999,16098,-.28652E-2,-.1134E-4,0
ONEWEB-0720,2023-029AR,2026-07-02T19:37:21.249120,13.19725574,.0001915,87.9183,301.8639,109.6856,250.4484,0,U,55835,999,16090,.42287E-4,.3E-6,0
ONEWEB-0537,2023-043A,2026-07-02T13:06:12.939840,13.16593729,.0002265,87.9084,225.7213,92.8759,267.2631,0,U,56046,999,16098,-.3177E-3,-.109E-5,0
ONEWEB-0538,2023-043B,2026-07-02T20:14:50.082144,13.16592895,.0002266,87.9087,225.6647,99.7209,260.4178,0,U,56047,999,16103,-.37219E-4,-.1E-7,0
ONEWEB-0546,2023-043C,2026-07-02T19:56:35.645568,13.16593708,.0002538,87.9085,225.6670,83.7451,276.3969,0,U,56048,999,16102,-.82309E-4,-.19E-6,0
ONEWEB-0547,2023-043D,2026-07-02T03:50:51.381024,13.21827019,.00021046,87.9250,240.9953,103.0496,257.0873,0,U,56049,999,16020,.19699228E-3,.94E-6,0
ONEWEB-0548,2023-043E,2026-07-02T13:14:11.211360,13.16594124,.0001706,87.9081,225.7186,86.4984,273.6342,0,U,56050,999,16098,.73067E-4,.41E-6,0
ONEWEB-0549,2023-043F,2026-07-02T14:36:24.106176,13.21827100,.0002329,87.9243,240.9118,103.8313,256.3080,0,U,56051,999,16026,.12966E-3,.67E-6,0
ONEWEB-0550,2023-043G,2026-07-02T14:17:02.275008,13.21826981,.0001812,87.9249,240.9124,96.2100,263.9241,0,U,56052,999,16026,.12758E-3,.66E-6,0
ONEWEB-0551,2023-043H,2026-07-02T10:37:33.562848,13.15546804,.0002226,87.8998,256.1871,107.6160,252.5213,0,U,56053,999,15840,.13163E-3,.62E-6,0
ONEWEB-0552,2023-043J,2026-07-02T14:09:44.366112,13.21825629,.0001983,87.9242,240.9184,103.2955,256.8400,0,U,56054,999,16026,.14219E-3,.72E-6,0
ONEWEB-0553,2023-043K,2026-07-02T20:05:42.801216,13.16593348,.0002232,87.9085,225.6666,86.7169,273.4217,0,U,56055,999,16103,-.2543E-3,-.84E-6,0
ONEWEB-0554,2023-043L,2026-07-02T19:47:28.912416,13.16593223,.0001665,87.9084,225.6773,85.1589,274.9732,0,U,56056,999,16101,.43551E-4,.29E-6,0
ONEWEB-0555,2023-043M,2026-07-02T13:24:26.597088,13.16593341,.0002439,87.9088,225.7192,84.5820,275.5589,0,U,56057,999,16098,.29644E-3,.126E-5,0
ONEWEB-0557,2023-043N,2026-07-02T13:44:57.841152,13.16594034,.0001977,87.9090,225.7260,58.5696,301.5628,0,U,56058,999,16098,.13775E-3,.66E-6,0
ONEWEB-0558,2023-043P,2026-07-02T14:00:03.321792,13.21825401,.0002356,87.9243,240.9152,101.8808,258.2590,0,U,56059,999,16027,.61062E-4,.38E-6,0
ONEWEB-0559,2023-043Q,2026-07-02T13:43:05.274048,13.21826234,.0002115,87.9246,240.9128,103.6264,256.5105,0,U,56060,999,16028,.82775E-4,.47E-6,0
ONEWEB-0566,2023-043R,2026-07-02T11:44:23.830080,13.21827694,.0002186,87.9241,240.9264,106.0246,254.1128,0,U,56061,999,16025,.16233E-3,.8E-6,0
ONEWEB-0568,2023-043S,2026-07-02T19:38:22.531776,13.16595167,.0002247,87.9084,225.6666,89.5817,270.5571,0,U,56062,999,16103,.8752E-4,.46E-6,0
ONEWEB-0574,2023-043T,2026-07-02T13:23:44.604096,13.21825196,.0001961,87.9249,240.9176,92.6593,267.4766,0,U,56063,999,16030,-.92603E-6,.13E-6,0
ONEWEB-0575,2023-043U,2026-07-02T19:29:14.672832,13.16595195,.0001951,87.9087,225.6644,82.9762,277.1591,0,U,56064,999,16102,.13577E-3,.65E-6,0
ONEWEB-0576,2023-043V,2026-07-02T13:33:34.172640,13.16595394,.0001977,87.9088,225.7215,89.7614,270.3743,0,U,56065,999,16098,.24797E-3,.108E-5,0
ONEWEB-0577,2023-043W,2026-07-02T13:42:42.264864,13.16595546,.0001641,87.9087,225.7180,73.4001,286.7310,0,U,56066,999,16101,.40249E-3,.167E-5,0
ONEWEB-0578,2023-043X,2026-07-02T14:53:22.238592,13.21825358,.0002264,87.9248,240.9020,90.7079,269.4315,0,U,56067,999,16027,-.15241E-3,-.5E-6,0
ONEWEB-0579,2023-043Y,2026-07-02T14:41:14.610624,13.21827190,.0001881,87.9245,240.9014,104.0658,256.0686,0,U,56068,999,16028,-.1294E-3,-.4E-6,0
ONEWEB-0581,2023-043Z,2026-07-02T19:20:07.472256,13.16594633,.0001678,87.9089,225.6827,82.2539,277.8782,0,U,56069,999,16101,.15957E-3,.74E-6,0
ONEWEB-0609,2023-043AA,2026-07-02T14:54:14.829408,13.15548110,.0002116,87.8994,256.1367,100.0368,260.1001,0,U,56070,999,15846,-.75431E-3,-.271E-5,0
ONEWEB-0613,2023-043AB,2026-07-02T14:50:50.199648,13.15547365,.0002037,87.8996,256.1497,107.1965,252.9388,0,U,56071,999,15846,-.39029E-3,-.134E-5,0
ONEWEB-0630,2023-043AC,2026-07-02T11:04:57.609696,13.15548136,.0001953,87.9000,256.1534,106.2301,253.9044,0,U,56072,999,15843,-.1997E-3,-.62E-6,0
ONEWEB-0632,2023-043AD,2026-07-02T10:58:06.540960,13.15548090,.0001888,87.8998,256.1714,96.9730,263.1615,0,U,56073,999,15843,-.31222E-3,-.105E-5,0
